[{"OBJECT_NAME":"STARLINK-34474","OBJECT_ID":"2025-133C","EPOCH":"2026-03-09T09:52:56.459712","MEAN_MOTION":15.30190526,"ECCENTRICITY":0.00012945,"INCLINATION":53.158,"RA_OF_ASC_NODE":118.2474,"ARG_OF_PERICENTER":64.4406,"MEAN_ANOMALY":295.6728,"EPHEMERIS_TYPE":0,"CLASSIFICATION_TYPE":"U","NORAD_CAT_ID":64474,"ELEMENT_SET_NO":999,"REV_AT_EPOCH":4112,"BSTAR":0.00064493175,"MEAN_MOTION_DOT":0.00018785,"MEAN_MOTION_DDOT":0},{"OBJECT_NAME":"CZ-4B DEB","OBJECT_ID":"1999-057H","EPOCH":"2026-03-09T17:25:29.363520","MEAN_MOTION":15.25756771,"ECCENTRICITY":0.00339549,"INCLINATION":98.6728,"RA_OF_ASC_NODE":149.1557,"ARG_OF_PERICENTER":175.409,"MEAN_ANOMALY":184.7463,"EPHEMERIS_TYPE":0,"CLASSIFICATION_TYPE":"U","NORAD_CAT_ID":26121,"ELEMENT_SET_NO":999,"REV_AT_EPOCH":41150,"BSTAR":0.00075758105,"MEAN_MOTION_DOT":0.00019602,"MEAN_MOTION_DDOT":0}]
